ONEWEB-0665             
1 55825U 23029AF  24147.19077419 -.00000890  00000+0 -24351-2 0  9992
2 55825  87.8964  79.3391 0001618  92.7481 267.3833 13.14507662 61305
ONEWEB-0666             
1 55826U 23029AG  24146.76868959  .00000012  00000+0 -24735-5 0  9996
2 55826  87.9224  64.1795 0001800  67.3017 292.8307 13.20775596 62515
ONEWEB-0667             
1 55827U 23029AH  24147.14116843  .00004951  00000+0  12143-1 0  9999
2 55827  87.9216  64.0396 0001636  70.5677 289.5633 13.20752116 62550
ONEWEB-0669             
1 55828U 23029AJ  24147.13645213  .00000001  00000+0 -29674-4 0  9990
2 55828  87.9223  64.0776 0001106  64.4897 295.6350 13.20772098 62554
ONEWEB-0670             
1 55829U 23029AK  24147.16856800  .00000029  00000+0  44399-4 0  9990
2 55829  87.8968  79.3484 0001847  98.3165 261.8175 13.14499334 61327
ONEWEB-0671             
1 55830U 23029AL  24146.58182940  .00000082  00000+0  17360-3 0  9990
2 55830  87.9145  94.7514 0002338  90.4705 269.6696 13.19727544 59638
ONEWEB-0672             
1 55831U 23029AM  24146.52563995 -.00000019  00000+0 -78303-4 0  9995
2 55831  87.9222  64.1827 0001937  70.5998 289.5344 13.20775458 61790
ONEWEB-0673             
1 55832U 23029AN  24146.93721969 -.00000225  00000+0 -59533-3 0  9990
2 55832  87.9142  94.6479 0002124  89.2127 270.9250 13.19724908 60390
